[{"OBJECT_NAME":"COSMOS 2549","OBJECT_ID":"2021-008A","EPOCH":"2026-03-06T20:52:58.778400","MEAN_MOTION":13.97028532,"ECCENTRICITY":0.0006353,"INCLINATION":67.1478,"RA_OF_ASC_NODE":233.8777,"ARG_OF_PERICENTER":262.6777,"MEAN_ANOMALY":97.3586,"EPHEMERIS_TYPE":0,"CLASSIFICATION_TYPE":"U","NORAD_CAT_ID":47546,"ELEMENT_SET_NO":999,"REV_AT_EPOCH":25954,"BSTAR":0.00014288628,"MEAN_MOTION_DOT":1.24e-6,"MEAN_MOTION_DDOT":0},{"OBJECT_NAME":"LANDSAT 2","OBJECT_ID":"1975-004A","EPOCH":"2026-03-09T21:23:33.637056","MEAN_MOTION":13.96967256,"ECCENTRICITY":0.00078789,"INCLINATION":99.0289,"RA_OF_ASC_NODE":25.7814,"ARG_OF_PERICENTER":219.0229,"MEAN_ANOMALY":141.0366,"EPHEMERIS_TYPE":0,"CLASSIFICATION_TYPE":"U","NORAD_CAT_ID":7615,"ELEMENT_SET_NO":999,"REV_AT_EPOCH":60526,"BSTAR":7.7979449e-5,"MEAN_MOTION_DOT":6.5e-7,"MEAN_MOTION_DDOT":0}]
